STARLINK-37243          
1 68608U 26073G   26114.71612748  .00227514  00000+0  11524-2 0  9991
2 68608  97.2848 312.7858 0000824  52.8247 307.3096 15.80918625  2807
STARLINK-37250          
1 68609U 26073H   26114.58877839  .00226136  00000+0  11461-2 0  9990
2 68609  97.2843 312.6525 0001368  96.2307 263.9117 15.80908470  2781
STARLINK-37105          
1 68610U 26073J   26115.00003472  .00024770  00000+0  16689-3 0  9992
2 68610  97.2853 313.0483 0001528 101.6012 342.9001 15.75129443  3896
STARLINK-37177          
1 68611U 26073K   26114.71387442  .00187364  00000+0  95425-3 0  9996
2 68611  97.2844 312.7888 0000787  81.6141 278.5217 15.80903267  2801
STARLINK-36386          
1 68612U 26073L   26114.52322446  .00222242  00000+0  11278-2 0  9997
2 68612  97.2842 312.5888 0001289  78.0264 282.1148 15.80891277  2779
STARLINK-36187          
1 68613U 26073M   26114.71237287  .00259198  00000+0  13076-2 0  9995
2 68613  97.2842 312.7906 0001257  85.0488 275.0924 15.80925351  2802
STARLINK-37170          
1 68614U 26073N   26115.91668981  .00104504  00000+0  69604-3 0  9997
2 68614  97.2846 314.0563 0001145 107.1800 243.7113 15.75087774  4122
STARLINK-37176          
1 68615U 26073P   26114.64756785  .00266464  00000+0  13423-2 0  9998
2 68615  97.2841 312.7262 0001332  57.0911 303.0485 15.80937773  2795
STARLINK-37152          
1 68616U 26073Q   26115.91668981  .00194583  00000+0  12816-2 0  9997
2 68616  97.2841 314.0274 0001498  91.9915 190.9082 15.75087088  3299
STARLINK-37186          
1 68617U 26073R   26114.51946604  .00139180  00000+0  71424-3 0  9997
2 68617  97.2837 312.5929 0001326  93.7406 266.4014 15.80864407  2770
STARLINK-37179          
1 68618U 26073S   26115.91668981  .00032113  00000+0  21494-3 0  9992
2 68618  97.2848 314.0602 0000528 125.9178 234.8522 15.75235489  4125
STARLINK-37226          
1 68619U 26073T   26115.91668981  .00165274  00000+0  10920-2 0  9999
2 68619  97.2846 314.0481 0000984  87.6557 243.2403 15.75096983  4047
STARLINK-37211          
1 68620U 26073U   26114.01079800  .00222329  00000+0  11287-2 0  9999
2 68620  97.2835 312.0597 0001509  67.1109 293.0319 15.80882862  2696
STARLINK-37269          
1 68621U 26073V   26114.53871746  .00125612  00000+0  82965-3 0  9995
2 68621  97.2858 312.5669 0001210  73.2136 286.9262 15.75219246  2775
STARLINK-37252          
1 68622U 26073W   26115.91668981  .00020321  00000+0  13714-3 0  9991
2 68622  97.2844 314.0431 0001462  85.7954 233.0945 15.75130837  4041
STARLINK-37284          
1 68623U 26073X   26114.76816121  .00177830  00000+0  90754-3 0  9992
2 68623  97.2835 312.8669 0001272  89.8601 270.2813 15.80883365  2811
